HIMAWARI-8              
1 40267U 14060A   24051.78334188 -.00000285  00000+0  00000+0 0  9998
2 40267   0.0452 238.1195 0001471  99.9077 234.7940  1.00271092 34362
